OBJECT_NAME,OBJECT_ID,EPOCH,MEAN_MOTION,ECCENTRICITY,INCLINATION,RA_OF_ASC_NODE,ARG_OF_PERICENTER,MEAN_ANOMALY,EPHEMERIS_TYPE,CLASSIFICATION_TYPE,NORAD_CAT_ID,ELEMENT_SET_NO,REV_AT_EPOCH,BSTAR,MEAN_MOTION_DOT,MEAN_MOTION_DDOT
SWARM A,2013-067B,2026-07-13T19:09:49.932576,15.51440944,.0003313,87.3298,46.3468,94.3620,265.8020,0,U,39452,999,71037,.11193E-3,.664E-4,0
SWARM C,2013-067C,2026-07-13T19:09:41.822208,15.51440233,.0003302,87.3298,44.9277,94.3439,265.8199,0,U,39453,999,71033,.11003E-3,.6528E-4,0
BRITE-CA1 (TORONTO),2014-033L,2026-07-13T21:00:55.135296,14.72721023,.0078341,97.9770,323.3165,190.4879,169.4699,0,U,40020,999,64614,.87417E-4,.531E-5,0
OCO 2,2014-035A,2026-07-13T19:10:40.491264,14.57131574,.000144,98.2020,135.6879,80.9866,279.1495,0,U,40059,999,63992,.46273E-4,.163E-5,0
BRITE-PL2 (HEWELIUSZ),2014-049B,2026-07-13T18:00:24.384672,14.94684980,.001448,97.9120,306.9592,26.9813,333.2156,0,U,40119,999,64541,.65131E-4,.648E-5,0
MMS 1,2015-011A,2026-07-13T22:00:03.998880,0.28346196,.8304284,72.5061,348.4337,168.0306,145.0229,0,U,40482,999,135,0,-.1472E-4,0
MMS 2,2015-011B,2026-07-13T22:00:03.998880,0.28346152,.8307099,72.5101,348.4327,168.0335,145.0104,0,U,40483,999,135,0,-.1473E-4,0
MMS 3,2015-011C,2026-07-13T22:00:03.998880,0.28345825,.8305334,72.5069,348.4453,168.0420,144.9790,0,U,40484,999,132,0,-.1472E-4,0
MMS 4,2015-011D,2026-07-13T22:00:03.998880,0.28346190,.8305414,72.5054,348.4280,168.0511,144.9796,0,U,40485,999,138,0,-.1472E-4,0
ASTROSAT,2015-052A,2026-07-13T19:10:03.817056,14.82550954,.0007506,5.9977,323.8025,52.5110,307.5700,0,U,40930,999,58378,.56613E-4,.1136E-4,0
DAMPE,2015-078A,2026-07-13T21:40:45.901920,15.30851323,.0011744,97.4561,200.5026,350.3434,9.7580,0,U,41173,999,58863,.25684E-4,.689E-5,0
PISAT,2016-059B,2026-07-13T12:06:17.036640,14.69027907,.00303814,97.8190,193.8276,119.9868,240.4360,0,U,41784,999,52360,.88465925E-4,.475E-5,0
HXMT (HUIYAN),2017-034A,2026-07-13T20:07:48.548640,15.18681428,.0032433,43.0153,34.6152,312.4391,47.3717,0,U,42758,999,50171,.12124E-3,.2347E-4,0
FLYING LAPTOP,2017-042G,2026-07-13T20:19:46.401312,15.01308694,.0019757,97.4792,349.3759,36.8487,323.4091,0,U,42831,999,49045,.19107E-3,.241E-4,0
ZHANGHENG 1-01 (CSES-1),2018-015C,2026-07-13T20:25:16.565088,15.20597178,.001628,97.6884,1.0432,169.5093,190.6485,0,U,43194,999,46869,.17403E-3,.3753E-4,0
SALSAT,2020-068K,2026-07-13T12:03:32.996736,15.30157505,.00089942,97.8854,199.1769,199.0888,161.0016,0,U,46495,999,31938,.15262836E-3,.4373E-4,0
IXPE,2021-121A,2026-07-13T20:00:01.999008,15.10483783,.0007018,0.2291,115.6114,120.5059,41.1138,0,U,49954,999,521,.31278E-3,.6226E-4,0
SMILE,2026-109A,2026-07-09T17:59:58.642656,0.47504768,.8323712,70.0471,206.6613,287.0422,0.1458,0,U,69123,999,4,0,.1173E-4,0
