SWARM A                 
1 39452U 13067B   26194.79849459  .00006640  00000+0  11193-3 0  9990
2 39452  87.3298  46.3468 0003313  94.3620 265.8020 15.51440944710375
SWARM C                 
1 39453U 13067C   26194.79840072  .00006528  00000+0  11003-3 0  9998
2 39453  87.3298  44.9277 0003302  94.3439 265.8199 15.51440233710338
BRITE-CA1 (TORONTO)     
1 40020U 14033L   26194.87563814  .00000531  00000+0  87417-4 0  9990
2 40020  97.9770 323.3165 0078341 190.4879 169.4699 14.72721023646145
OCO 2                   
1 40059U 14035A   26194.79907976  .00000163  00000+0  46273-4 0  9992
2 40059  98.2020 135.6879 0001440  80.9866 279.1495 14.57131574639920
BRITE-PL2 (HEWELIUSZ)   
1 40119U 14049B   26194.75028223  .00000648  00000+0  65131-4 0  9991
2 40119  97.9120 306.9592 0014480  26.9813 333.2156 14.94684980645411
MMS 1                   
1 40482U 15011A   26194.91671295 -.00001472  00000+0  00000+0 0  9991
2 40482  72.5061 348.4337 8304284 168.0306 145.0229  0.28346196  1357
MMS 2                   
1 40483U 15011B   26194.91671295 -.00001473  00000+0  00000+0 0  9993
2 40483  72.5101 348.4327 8307099 168.0335 145.0104  0.28346152  1355
MMS 3                   
1 40484U 15011C   26194.91671295 -.00001472  00000+0  00000+0 0  9993
2 40484  72.5069 348.4453 8305334 168.0420 144.9790  0.28345825  1326
MMS 4                   
1 40485U 15011D   26194.91671295 -.00001472  00000+0  00000+0 0  9994
2 40485  72.5054 348.4280 8305414 168.0511 144.9796  0.28346190  1387
ASTROSAT                
1 40930U 15052A   26194.79865529  .00001136  00000+0  56613-4 0  9997
2 40930   5.9977 323.8025 0007506  52.5110 307.5700 14.82550954583786
DAMPE                   
1 41173U 15078A   26194.90330905  .00000689  00000+0  25684-4 0  9999
2 41173  97.4561 200.5026 0011744 350.3434   9.7580 15.30851323588634
PISAT                   
1 41784U 16059B   26194.50436385  .00000475  00000+0  88466-4 0  9992
2 41784  97.8190 193.8276 0030381 119.9868 240.4360 14.69027907523603
HXMT (HUIYAN)           
1 42758U 17034A   26194.83875635  .00002347  00000+0  12124-3 0  9996
2 42758  43.0153  34.6152 0032433 312.4391  47.3717 15.18681428501710
FLYING LAPTOP           
1 42831U 17042G   26194.84706483  .00002410  00000+0  19107-3 0  9991
2 42831  97.4792 349.3759 0019757  36.8487 323.4091 15.01308694490454
ZHANGHENG 1-01 (CSES-1) 
1 43194U 18015C   26194.85088617  .00003753  00000+0  17403-3 0  9996
2 43194  97.6884   1.0432 0016280 169.5093 190.6485 15.20597178468696
SALSAT                  
1 46495U 20068K   26194.50246524  .00004373  00000+0  15263-3 0  9990
2 46495  97.8854 199.1769 0008994 199.0888 161.0016 15.30157505319387
IXPE                    
1 49954U 21121A   26194.83335647  .00006226  00000+0  31278-3 0  9998
2 49954   0.2291 115.6114 0007018 120.5059  41.1138 15.10483783  5210
SMILE                   
1 69123U 26109A   26190.74998429  .00001173  00000+0  00000+0 0  9999
2 69123  70.0471 206.6613 8323712 287.0422   0.1458  0.47504768    40
